{"fetched_at":"2026-03-29T16:36:15Z","count":15609,"tles":[{"name":"STARLINK-11155 [DTC]","line1":"1 60046U 24112J   26087.66918178  .00004716  00000+0  43756-4 0  9991","line2":"2 60046  53.1592 172.5814 0000895  76.7877 283.3241 15.69710614103967","category":"Starlink"}]}