{
  "norad_id": 60046,
  "name": "STARLINK-11155 [DTC]",
  "history": [
    {
      "epoch": "2026-03-28T16:03:37.305792",
      "apogee_km": 360.3281667930287,
      "perigee_km": 359.1218199817331,
      "latitude_deg": -53.12445390676419,
      "longitude_deg": -111.15854911971837,
      "semi_major_axis_km": 6737.861993387381,
      "eccentricity": 8.952e-05,
      "inclination_deg": 53.1592,
      "raan_deg": 172.5814,
      "arg_perigee_deg": 76.7877,
      "mean_anomaly_deg": 283.3241,
      "mean_motion_rev_day": 15.69710614
    }
  ]
}